start=new Date('2023-07-01T00:00:00.000Z').valueOf();
sats=[{"OBJECT_ID":"2022-084R","BSTAR":"0.00014531000000","COUNTRY_CODE":"US","RCS_SIZE":"LARGE","REV_AT_EPOCH":"5220","CLASSIFICATION_TYPE":"U","RA_OF_ASC_NODE":"242.5342","MEAN_ELEMENT_THEORY":"SGP4","ELEMENT_SET_NO":"999","APOAPSIS":"564.061","REF_FRAME":"TEME","SEMIMAJOR_AXIS":"6941.131","GP_ID":"234636778","DECAY_DATE":null,"LAUNCH_DATE":"2022-07-22","OBJECT_NAME":"STARLINK-4410","EPHEMERIS_TYPE":"0","ECCENTRICITY":"0.00015340","CENTER_NAME":"EARTH","TIME_SYSTEM":"UTC","TLE_LINE1":"1 53204U 22084R   23181.64030317  .00001808  00000-0  14531-3 0  9993","ARG_OF_PERICENTER":"89.9598","TLE_LINE2":"2 53204  97.6573 242.5342 0001534  89.9598 270.1801 15.01265008 52202","EPOCH":"2023-06-30T15:22:02.193888","NORAD_CAT_ID":"53204","MEAN_MOTION_DOT":"0.00001808","SITE":"AFWTR","FILE":"3946210","MEAN_ANOMALY":"270.1801","PERIAPSIS":"561.932","MEAN_MOTION_DDOT":"0.0000000000000","INCLINATION":"97.6573","MEAN_MOTION":"15.01265008","OBJECT_TYPE":"PAYLOAD","PERIOD":"95.919"},{"ARG_OF_PERICENTER":"102.7324","TLE_LINE1":"1 53205U 22084S   23179.76639493  .00002224  00000-0  17772-3 0  9997","CENTER_NAME":"EARTH","TIME_SYSTEM":"UTC","ECCENTRICITY":"0.00017990","EPHEMERIS_TYPE":"0","MEAN_MOTION_DOT":"0.00002224","NORAD_CAT_ID":"53205","EPOCH":"2023-06-28T18:23:36.521952","TLE_LINE2":"2 53205  97.6536 240.6825 0001799 102.7324 257.4101 15.01259747 51923","FILE":"3945213","SITE":"AFWTR","PERIAPSIS":"561.764","MEAN_ANOMALY":"257.4101","OBJECT_TYPE":"PAYLOAD","MEAN_MOTION":"15.01259747","INCLINATION":"97.6536","MEAN_MOTION_DDOT":"0.0000000000000","PERIOD":"95.919","COUNTRY_CODE":"US","BSTAR":"0.00017772000000","OBJECT_ID":"2022-084S","REV_AT_EPOCH":"5192","RCS_SIZE":"LARGE","CLASSIFICATION_TYPE":"U","RA_OF_ASC_NODE":"240.6825","MEAN_ELEMENT_THEORY":"SGP4","REF_FRAME":"TEME","APOAPSIS":"564.261","ELEMENT_SET_NO":"999","DECAY_DATE":null,"GP_ID":"234611551","SEMIMAJOR_AXIS":"6941.148","OBJECT_NAME":"STARLINK-4397","LAUNCH_DATE":"2022-07-22"},{"OBJECT_TYPE":"PAYLOAD","INCLINATION":"97.6526","MEAN_MOTION":"15.01257444","MEAN_MOTION_DDOT":"0.0000000000000","PERIOD":"95.920","FILE":"3945213","SITE":"AFWTR","PERIAPSIS":"562.218","MEAN_ANOMALY":"249.5179","ARG_OF_PERICENTER":"110.6169","TLE_LINE1":"1 53206U 22084T   23179.75527870  .00001203  00000-0  98261-4 0  9991","CENTER_NAME":"EARTH","TIME_SYSTEM":"UTC","EPHEMERIS_TYPE":"0","ECCENTRICITY":"0.00011550","MEAN_MOTION_DOT":"0.00001203","NORAD_CAT_ID":"53206","EPOCH":"2023-06-28T18:07:36.079680","TLE_LINE2":"2 53206  97.6526 240.7027 0001155 110.6169 249.5179 15.01257444 51928","GP_ID":"234612052","SEMIMAJOR_AXIS":"6941.155","DECAY_DATE":null,"OBJECT_NAME":"STARLINK-4408","LAUNCH_DATE":"2022-07-22","MEAN_ELEMENT_THEORY":"SGP4","REF_FRAME":"TEME","APOAPSIS":"563.821","ELEMENT_SET_NO":"999","CLASSIFICATION_TYPE":"U","RA_OF_ASC_NODE":"240.7027","COUNTRY_CODE":"US","BSTAR":"0.00009826100000","OBJECT_ID":"2022-084T","RCS_SIZE":"LARGE","REV_AT_EPOCH":"5192"},{"REV_AT_EPOCH":"5207","RCS_SIZE":"LARGE","COUNTRY_CODE":"US","OBJECT_ID":"2022-084U","BSTAR":"0.00001654200000","RA_OF_ASC_NODE":"241.6631","CLASSIFICATION_TYPE":"U","APOAPSIS":"564.320","REF_FRAME":"TEME","ELEMENT_SET_NO":"999","MEAN_ELEMENT_THEORY":"SGP4","OBJECT_NAME":"STARLINK-4413","LAUNCH_DATE":"2022-07-22","GP_ID":"234630187","DECAY_DATE":null,"SEMIMAJOR_AXIS":"6941.154","NORAD_CAT_ID":"53207","MEAN_MOTION_DOT":"0.00000153","TLE_LINE2":"2 53207  97.6529 241.6631 0001874  98.7219 261.4217 15.01257675 52072","EPOCH":"2023-06-29T18:20:37.969440","TLE_LINE1":"1 53207U 22084U   23180.76432835  .00000153  00000-0  16542-4 0  9996","ARG_OF_PERICENTER":"98.7219","EPHEMERIS_TYPE":"0","ECCENTRICITY":"0.00018740","TIME_SYSTEM":"UTC","CENTER_NAME":"EARTH","MEAN_ANOMALY":"261.4217","PERIAPSIS":"561.718","FILE":"3945939","SITE":"AFWTR","PERIOD":"95.920","OBJECT_TYPE":"PAYLOAD","MEAN_MOTION_DDOT":"0.0000000000000","INCLINATION":"97.6529","MEAN_MOTION":"15.01257675"},{"ARG_OF_PERICENTER":"109.1869","TLE_LINE1":"1 53208U 22084V   23181.63821145 -.00002178  00000-0 -16501-3 0  9995","CENTER_NAME":"EARTH","TIME_SYSTEM":"UTC","EPHEMERIS_TYPE":"0","ECCENTRICITY":"0.00018140","MEAN_MOTION_DOT":"-0.00002178","NORAD_CAT_ID":"53208","EPOCH":"2023-06-30T15:19:01.469280","TLE_LINE2":"2 53208  97.6547 242.5309 0001814 109.1869 250.9552 15.01256660 52200","FILE":"3946094","SITE":"AFWTR","PERIAPSIS":"561.763","MEAN_ANOMALY":"250.9552","OBJECT_TYPE":"PAYLOAD","INCLINATION":"97.6547","MEAN_MOTION":"15.01256660","MEAN_MOTION_DDOT":"0.0000000000000","PERIOD":"95.920","COUNTRY_CODE":"US","BSTAR":"-0.00016501000000","OBJECT_ID":"2022-084V","RCS_SIZE":"LARGE","REV_AT_EPOCH":"5220","CLASSIFICATION_TYPE":"U","RA_OF_ASC_NODE":"242.5309","MEAN_ELEMENT_THEORY":"SGP4","REF_FRAME":"TEME","APOAPSIS":"564.281","ELEMENT_SET_NO":"999","SEMIMAJOR_AXIS":"6941.157","GP_ID":"234634108","DECAY_DATE":null,"OBJECT_NAME":"STARLINK-4425","LAUNCH_DATE":"2022-07-22"},{"TLE_LINE2":"2 53209  97.6535 242.5119 0001551 102.3152 257.8246 15.01269376 52209","EPOCH":"2023-06-30T15:06:02.803104","NORAD_CAT_ID":"53209","MEAN_MOTION_DOT":"-0.00002624","ECCENTRICITY":"0.00015510","EPHEMERIS_TYPE":"0","CENTER_NAME":"EARTH","TIME_SYSTEM":"UTC","TLE_LINE1":"1 53209U 22084W   23181.62919911 -.00002624  00000-0 -19971-3 0  9994","ARG_OF_PERICENTER":"102.3152","MEAN_ANOMALY":"257.8246","PERIAPSIS":"561.906","SITE":"AFWTR","FILE":"3946327","PERIOD":"95.919","MEAN_MOTION_DDOT":"0.0000000000000","MEAN_MOTION":"15.01269376","INCLINATION":"97.6535","OBJECT_TYPE":"PAYLOAD","REV_AT_EPOCH":"5220","RCS_SIZE":"LARGE","OBJECT_ID":"2022-084W","BSTAR":"-0.00019971000000","COUNTRY_CODE":"US","RA_OF_ASC_NODE":"242.5119","CLASSIFICATION_TYPE":"U","ELEMENT_SET_NO":"999","APOAPSIS":"564.060","REF_FRAME":"TEME","MEAN_ELEMENT_THEORY":"SGP4","LAUNCH_DATE":"2022-07-22","OBJECT_NAME":"STARLINK-4423","GP_ID":"234639738","SEMIMAJOR_AXIS":"6941.118","DECAY_DATE":null},{"COUNTRY_CODE":"US","OBJECT_ID":"2022-084X","BSTAR":"0.00001285600000","RCS_SIZE":"LARGE","REV_AT_EPOCH":"5220","CLASSIFICATION_TYPE":"U","RA_OF_ASC_NODE":"242.5253","MEAN_ELEMENT_THEORY":"SGP4","APOAPSIS":"564.238","REF_FRAME":"TEME","ELEMENT_SET_NO":"999","DECAY_DATE":null,"GP_ID":"234637080","SEMIMAJOR_AXIS":"6941.147","OBJECT_NAME":"STARLINK-4427","LAUNCH_DATE":"2022-07-22","TLE_LINE1":"1 53210U 22084X   23181.63451066  .00000106  00000-0  12856-4 0  9996","ARG_OF_PERICENTER":"103.0861","EPHEMERIS_TYPE":"0","ECCENTRICITY":"0.00017670","TIME_SYSTEM":"UTC","CENTER_NAME":"EARTH","NORAD_CAT_ID":"53210","MEAN_MOTION_DOT":"0.00000106","TLE_LINE2":"2 53210  97.6542 242.5253 0001767 103.0861 257.0561 15.01260000 52209","EPOCH":"2023-06-30T15:13:41.721024","FILE":"3946212","SITE":"AFWTR","MEAN_ANOMALY":"257.0561","PERIAPSIS":"561.785","OBJECT_TYPE":"PAYLOAD","MEAN_MOTION_DDOT":"0.0000000000000","INCLINATION":"97.6542","MEAN_MOTION":"15.01260000","PERIOD":"95.919"},{"ELEMENT_SET_NO":"999","REF_FRAME":"TEME","APOAPSIS":"563.811","MEAN_ELEMENT_THEORY":"SGP4","LAUNCH_DATE":"2022-07-22","OBJECT_NAME":"STARLINK-4419","GP_ID":"234629765","DECAY_DATE":null,"SEMIMAJOR_AXIS":"6941.150","RCS_SIZE":"LARGE","REV_AT_EPOCH":"5207","BSTAR":"0.00003580500000","OBJECT_ID":"2022-084Y","COUNTRY_CODE":"US","RA_OF_ASC_NODE":"241.6521","CLASSIFICATION_TYPE":"U","PERIOD":"95.919","MEAN_MOTION":"15.01258936","INCLINATION":"97.6540","MEAN_MOTION_DDOT":"0.0000000000000","OBJECT_TYPE":"PAYLOAD","EPOCH":"2023-06-29T18:10:18.952320","TLE_LINE2":"2 53211  97.6540 241.6521 0001146 110.4000 249.7347 15.01258936 52074","MEAN_MOTION_DOT":"0.00000401","NORAD_CAT_ID":"53211","TIME_SYSTEM":"UTC","CENTER_NAME":"EARTH","ECCENTRICITY":"0.00011460","EPHEMERIS_TYPE":"0","ARG_OF_PERICENTER":"110.4000","TLE_LINE1":"1 53211U 22084Y   23180.75716380  .00000401  00000-0  35805-4 0  9999","PERIAPSIS":"562.220","MEAN_ANOMALY":"249.7347","SITE":"AFWTR","FILE":"3945945"},{"OBJECT_NAME":"STARLINK-4416","LAUNCH_DATE":"2022-07-22","SEMIMAJOR_AXIS":"6941.144","GP_ID":"234637129","DECAY_DATE":null,"APOAPSIS":"564.066","REF_FRAME":"TEME","ELEMENT_SET_NO":"999","MEAN_ELEMENT_THEORY":"SGP4","RA_OF_ASC_NODE":"242.5110","CLASSIFICATION_TYPE":"U","RCS_SIZE":"MEDIUM","REV_AT_EPOCH":"5220","COUNTRY_CODE":"US","OBJECT_ID":"2022-084Z","BSTAR":"0.00000516730000","PERIOD":"95.919","OBJECT_TYPE":"PAYLOAD","MEAN_MOTION_DDOT":"0.0000000000000","INCLINATION":"97.6539","MEAN_MOTION":"15.01260853","MEAN_ANOMALY":"257.4874","PERIAPSIS":"561.953","FILE":"3946215","SITE":"AFWTR","NORAD_CAT_ID":"53212","MEAN_MOTION_DOT":"0.00000007","TLE_LINE2":"2 53212  97.6539 242.5110 0001522 102.6520 257.4874 15.01260853 52202","EPOCH":"2023-06-30T15:05:41.788032","TLE_LINE1":"1 53212U 22084Z   23181.62895588  .00000007  00000-0  51673-5 0  9999","ARG_OF_PERICENTER":"102.6520","EPHEMERIS_TYPE":"0","ECCENTRICITY":"0.00015220","TIME_SYSTEM":"UTC","CENTER_NAME":"EARTH"},{"PERIOD":"95.919","MEAN_MOTION_DDOT":"0.0000000000000","INCLINATION":"97.6544","MEAN_MOTION":"15.01260983","OBJECT_TYPE":"PAYLOAD","TLE_LINE2":"2 53213  97.6544 241.6429 0001138 201.0118 159.1060 15.01260983 52076","EPOCH":"2023-06-29T18:04:37.699104","NORAD_CAT_ID":"53213","MEAN_MOTION_DOT":"0.00001428","EPHEMERIS_TYPE":"0","ECCENTRICITY":"0.00011380","TIME_SYSTEM":"UTC","CENTER_NAME":"EARTH","TLE_LINE1":"1 53213U 22084AA  23180.75321411  .00001428  00000-0  11578-3 0  9998","ARG_OF_PERICENTER":"201.0118","MEAN_ANOMALY":"159.1060","PERIAPSIS":"562.219","SITE":"AFWTR","FILE":"3945946","ELEMENT_SET_NO":"999","APOAPSIS":"563.799","REF_FRAME":"TEME","MEAN_ELEMENT_THEORY":"SGP4","LAUNCH_DATE":"2022-07-22","OBJECT_NAME":"STARLINK-4414","GP_ID":"234630273","SEMIMAJOR_AXIS":"6941.144","DECAY_DATE":null,"RCS_SIZE":"LARGE","REV_AT_EPOCH":"5207","OBJECT_ID":"2022-084AA","BSTAR":"0.00011578000000","COUNTRY_CODE":"US","RA_OF_ASC_NODE":"241.6429","CLASSIFICATION_TYPE":"U"}];
